{"type": "FeatureCollection", "features": [ {"type": "Feature", "properties": {"norad_id": 29999, "name": "FENGYUN 1C DEB", "group": "fengyun-1c-debris", "lat": 4.139055909144228, "lon": -32.41546591132257, "alt_km": 914.5120236220637, "timestamp": "2025-12-09T20:37:09.560077+00:00", "meta": {"OBJECT_NAME": "FENGYUN 1C DEB", "OBJECT_ID": "1999-025LZ", "EPOCH": "2025-12-09T12:42:54.770112", "MEAN_MOTION": 14.20127998, "ECCENTRICITY": 0.01894485, "INCLINATION": 98.5761, "RA_OF_ASC_NODE": 327.8908, "ARG_OF_PERICENTER": 135.8092, "MEAN_ANOMALY": 347.3832, "EPHEMERIS_TYPE": 0, "CLASSIFICATION_TYPE": "U", "NORAD_CAT_ID": 29999, "ELEMENT_SET_NO": 999, "REV_AT_EPOCH": 97678, "BSTAR": 0.00043373615, "MEAN_MOTION_DOT": 1.065e-05, "MEAN_MOTION_DDOT": 0}, "tle": {"line1": "1 29999U 99025LZ  25343.52980058  .00001065  00000+0  43374-3 0  9992", "line2": "2 29999  98.5761 327.8908 0189448 135.8092 347.3832 14.20127998976785"}}, "geometry": {"type": "Point", "coordinates": [-32.41546591132257, 4.139055909144228]}}, {"type": "Feature", "properties": {"norad_id": 30001, "name": "FENGYUN 1C DEB", "group": "fengyun-1c-debris", "lat": 56.01978383818785, "lon": -107.68369238150841, "alt_km": 731.6513741266472, "timestamp": "2025-12-09T20:37:09.560087+00:00", "meta": {"OBJECT_NAME": "FENGYUN 1C DEB", "OBJECT_ID": "1999-025MA", "EPOCH": "2025-12-09T03:39:32.793696", "MEAN_MOTION": 14.38489134, "ECCENTRICITY": 0.00384045, "INCLINATION": 98.9589, "RA_OF_ASC_NODE": 58.0436, "ARG_OF_PERICENTER": 109.2037, "MEAN_ANOMALY": 316.0351, "EPHEMERIS_TYPE": 0, "CLASSIFICATION_TYPE": "U", "NORAD_CAT_ID": 30001, "ELEMENT_SET_NO": 999, "REV_AT_EPOCH": 97380, "BSTAR": 0.0031612264, "MEAN_MOTION_DOT": 9.705e-05, "MEAN_MOTION_DDOT": 0}, "tle": {"line1": "1 30001U 99025MA  25343.15246289  .00009705  00000+0  31612-2 0  9998", "line2": "2 30001  98.9589  58.0436 0038404 109.2037 316.0351 14.38489134973802"}}, "geometry": {"type": "Point", "coordinates": [-107.68369238150841, 56.01978383818785]}}, {"type": "Feature", "properties": {"norad_id": 30003, "name": "FENGYUN 1C DEB", "group": "fengyun-1c-debris", "lat": 60.37843512518506, "lon": 155.8688919561266, "alt_km": 834.4795828137794, "timestamp": "2025-12-09T20:37:09.560099+00:00", "meta": {"OBJECT_NAME": "FENGYUN 1C DEB", "OBJECT_ID": "1999-025MC", "EPOCH": "2025-12-09T11:58:13.179360", "MEAN_MOTION": 13.85620417, "ECCENTRICITY": 0.01433159, "INCLINATION": 99.5763, "RA_OF_ASC_NODE": 318.2287, "ARG_OF_PERICENTER": 128.4099, "MEAN_ANOMALY": 353.2874, "EPHEMERIS_TYPE": 0, "CLASSIFICATION_TYPE": "U", "NORAD_CAT_ID": 30003, "ELEMENT_SET_NO": 999, "REV_AT_EPOCH": 95443, "BSTAR": 0.00043461567, "MEAN_MOTION_DOT": 4.93e-06, "MEAN_MOTION_DDOT": 0}, "tle": {"line1": "1 30003U 99025MC  25343.49876365  .00000493  00000+0  43462-3 0  9993", "line2": "2 30003  99.5763 318.2287 0143315 128.4099 353.2874 13.85620417954432"}}, "geometry": {"type": "Point", "coordinates": [155.8688919561266, 60.37843512518506]}}, {"type": "Feature", "properties": {"norad_id": 30004, "name": "FENGYUN 1C DEB", "group": "fengyun-1c-debris", "lat": -10.896342678294964, "lon": 166.664964770684, "alt_km": 811.6693735797153, "timestamp": "2025-12-09T20:37:09.560109+00:00", "meta": {"OBJECT_NAME": "FENGYUN 1C DEB", "OBJECT_ID": "1999-025MD", "EPOCH": "2025-12-09T10:46:30.861120", "MEAN_MOTION": 14.17046179, "ECCENTRICITY": 0.00386681, "INCLINATION": 99.2235, "RA_OF_ASC_NODE": 164.4473, "ARG_OF_PERICENTER": 352.1629, "MEAN_ANOMALY": 65.6566, "EPHEMERIS_TYPE": 0, "CLASSIFICATION_TYPE": "U", "NORAD_CAT_ID": 30004, "ELEMENT_SET_NO": 999, "REV_AT_EPOCH": 97260, "BSTAR": 0.0011820754, "MEAN_MOTION_DOT": 2.348e-05, "MEAN_MOTION_DDOT": 0}, "tle": {"line1": "1 30004U 99025MD  25343.44896830  .00002348  00000+0  11821-2 0  9992", "line2": "2 30004  99.2235 164.4473 0038668 352.1629  65.6566 14.17046179972605"}}, "geometry": {"type": "Point", "coordinates": [166.664964770684, -10.896342678294964]}}, {"type": "Feature", "properties": {"norad_id": 30005, "name": "FENGYUN 1C DEB", "group": "fengyun-1c-debris", "lat": 43.756640808684764, "lon": 135.01387672764955, "alt_km": 845.5890978326761, "timestamp": "2025-12-09T20:37:09.560119+00:00", "meta": {"OBJECT_NAME": "FENGYUN 1C DEB", "OBJECT_ID": "1999-025ME", "EPOCH": "2025-12-09T09:19:38.162496", "MEAN_MOTION": 13.52206035, "ECCENTRICITY": 0.0346658, "INCLINATION": 99.3019, "RA_OF_ASC_NODE": 305.5434, "ARG_OF_PERICENTER": 101.84, "MEAN_ANOMALY": 262.1829, "EPHEMERIS_TYPE": 0, "CLASSIFICATION_TYPE": "U", "NORAD_CAT_ID": 30005, "ELEMENT_SET_NO": 999, "REV_AT_EPOCH": 92901, "BSTAR": 0.0016875402, "MEAN_MOTION_DOT": 1.585e-05, "MEAN_MOTION_DDOT": 0}, "tle": {"line1": "1 30005U 99025ME  25343.38863614  .00001585  00000+0  16875-2 0  9996", "line2": "2 30005  99.3019 305.5434 0346658 101.8400 262.1829 13.52206035929019"}}, "geometry": {"type": "Point", "coordinates": [135.01387672764955, 43.756640808684764]}}, {"type": "Feature", "properties": {"norad_id": 30007, "name": "FENGYUN 1C DEB", "group": "fengyun-1c-debris", "lat": -40.557766163033456, "lon": -106.973337640612, "alt_km": 792.691913007021, "timestamp": "2025-12-09T20:37:09.560129+00:00", "meta": {"OBJECT_NAME": "FENGYUN 1C DEB", "OBJECT_ID": "1999-025MG", "EPOCH": "2025-12-09T11:30:46.990656", "MEAN_MOTION": 14.25373311, "ECCENTRICITY": 0.00657157, "INCLINATION": 99.1776, "RA_OF_ASC_NODE": 244.677, "ARG_OF_PERICENTER": 23.9099, "MEAN_ANOMALY": 149.7708, "EPHEMERIS_TYPE": 0, "CLASSIFICATION_TYPE": "U", "NORAD_CAT_ID": 30007, "ELEMENT_SET_NO": 999, "REV_AT_EPOCH": 97309, "BSTAR": 0.0029167545, "MEAN_MOTION_DOT": 6.992e-05, "MEAN_MOTION_DDOT": 0}, "tle": {"line1": "1 30007U 99025MG  25343.47971054  .00006992  00000+0  29168-2 0  9992", "line2": "2 30007  99.1776 244.6770 0065715  23.9099 149.7708 14.25373311973091"}}, "geometry": {"type": "Point", "coordinates": [-106.973337640612, -40.557766163033456]}}, {"type": "Feature", "properties": {"norad_id": 30008, "name": "FENGYUN 1C DEB", "group": "fengyun-1c-debris", "lat": 27.24466495916186, "lon": 124.70686430330674, "alt_km": 654.1536181439105, "timestamp": "2025-12-09T20:37:09.560140+00:00", "meta": {"OBJECT_NAME": "FENGYUN 1C DEB", "OBJECT_ID": "1999-025MH", "EPOCH": "2025-12-09T15:48:58.019040", "MEAN_MOTION": 14.66183507, "ECCENTRICITY": 0.00386813, "INCLINATION": 99.369, "RA_OF_ASC_NODE": 299.6019, "ARG_OF_PERICENTER": 201.799, "MEAN_ANOMALY": 335.0375, "EPHEMERIS_TYPE": 0, "CLASSIFICATION_TYPE": "U", "NORAD_CAT_ID": 30008, "ELEMENT_SET_NO": 999, "REV_AT_EPOCH": 99014, "BSTAR": 0.0030632086, "MEAN_MOTION_DOT": 0.00017019, "MEAN_MOTION_DDOT": 0}, "tle": {"line1": "1 30008U 99025MH  25343.65900485  .00017019  00000+0  30632-2 0  9993", "line2": "2 30008  99.3690 299.6019 0038681 201.7990 335.0375 14.66183507990149"}}, "geometry": {"type": "Point", "coordinates": [124.70686430330674, 27.24466495916186]}}, {"type": "Feature", "properties": {"norad_id": 30009, "name": "FENGYUN 1C DEB", "group": "fengyun-1c-debris", "lat": 50.22468993569499, "lon": -130.20498485923906, "alt_km": 910.2645762313341, "timestamp": "2025-12-09T20:37:09.560161+00:00", "meta": {"OBJECT_NAME": "FENGYUN 1C DEB", "OBJECT_ID": "1999-025MJ", "EPOCH": "2025-12-09T09:45:12.077856", "MEAN_MOTION": 14.04845075, "ECCENTRICITY": 0.00637778, "INCLINATION": 99.0149, "RA_OF_ASC_NODE": 38.3514, "ARG_OF_PERICENTER": 344.9975, "MEAN_ANOMALY": 14.9299, "EPHEMERIS_TYPE": 0, "CLASSIFICATION_TYPE": "U", "NORAD_CAT_ID": 30009, "ELEMENT_SET_NO": 999, "REV_AT_EPOCH": 96436, "BSTAR": 0.0010296232, "MEAN_MOTION_DOT": 1.639e-05, "MEAN_MOTION_DDOT": 0}, "tle": {"line1": "1 30009U 99025MJ  25343.40638979  .00001639  00000+0  10296-2 0  9998", "line2": "2 30009  99.0149  38.3514 0063777 344.9975  14.9299 14.04845075964361"}}, "geometry": {"type": "Point", "coordinates": [-130.20498485923906, 50.22468993569499]}}, {"type": "Feature", "properties": {"norad_id": 30010, "name": "FENGYUN 1C DEB", "group": "fengyun-1c-debris", "lat": 67.65985021000004, "lon": 18.793907302846165, "alt_km": 817.0507502100136, "timestamp": "2025-12-09T20:37:09.560173+00:00", "meta": {"OBJECT_NAME": "FENGYUN 1C DEB", "OBJECT_ID": "1999-025MK", "EPOCH": "2025-12-09T11:45:58.495104", "MEAN_MOTION": 14.24984319, "ECCENTRICITY": 0.00725547, "INCLINATION": 99.0699, "RA_OF_ASC_NODE": 175.539, "ARG_OF_PERICENTER": 218.7894, "MEAN_ANOMALY": 161.2047, "EPHEMERIS_TYPE": 0, "CLASSIFICATION_TYPE": "U", "NORAD_CAT_ID": 30010, "ELEMENT_SET_NO": 999, "REV_AT_EPOCH": 98214, "BSTAR": 0.00025048768, "MEAN_MOTION_DOT": 5.55e-06, "MEAN_MOTION_DDOT": 0}, "tle": {"line1": "1 30010U 99025MK  25343.49026036  .00000555  00000+0  25049-3 0  9993", "line2": "2 30010  99.0699 175.5390 0072554 218.7894 161.2047 14.24984319982140"}}, "geometry": {"type": "Point", "coordinates": [18.793907302846165, 67.65985021000004]}}, {"type": "Feature", "properties": {"norad_id": 30012, "name": "FENGYUN 1C DEB", "group": "fengyun-1c-debris", "lat": 68.47807746976079, "lon": -117.91343341393846, "alt_km": 863.8912585456719, "timestamp": "2025-12-09T20:37:09.560184+00:00", "meta": {"OBJECT_NAME": "FENGYUN 1C DEB", "OBJECT_ID": "1999-025MM", "EPOCH": "2025-12-09T03:01:53.489856", "MEAN_MOTION": 13.85761314, "ECCENTRICITY": 0.0136995, "INCLINATION": 99.4647, "RA_OF_ASC_NODE": 36.3222, "ARG_OF_PERICENTER": 155.2517, "MEAN_ANOMALY": 261.2841, "EPHEMERIS_TYPE": 0, "CLASSIFICATION_TYPE": "U", "NORAD_CAT_ID": 30012, "ELEMENT_SET_NO": 999, "REV_AT_EPOCH": 95498, "BSTAR": 0.00042279481, "MEAN_MOTION_DOT": 4.76e-06, "MEAN_MOTION_DDOT": 0}, "tle": {"line1": "1 30012U 99025MM  25343.12631354  .00000476  00000+0  42279-3 0  9996", "line2": "2 30012  99.4647  36.3222 0136995 155.2517 261.2841 13.85761314954982"}}, "geometry": {"type": "Point", "coordinates": [-117.91343341393846, 68.47807746976079]}}]}